OSCAR 7 (AO-7)          
1 07530U 74089B   20333.48319236 -.00000038  00000-0  44027-4 0  9993
2 07530 101.8252 302.4428 0012501  48.7003  67.5287 12.53646333106783
UOSAT 2 (UO-11)         
1 14781U 84021B   20332.88892088  .00000230  00000-0  34189-4 0  9991
2 14781  97.5896 336.7290 0009186  33.0509 327.1278 14.83216165956053
LUSAT (LO-19)           
1 20442U 90005G   20333.11328912  .00000022  00000-0  24344-4 0  9999
2 20442  98.7135 281.0653 0012457  37.5242 322.6809 14.32968235612051
EYESAT A (AO-27)        
1 22825U 93061C   20333.51086770  .00000020  00000-0  25679-4 0  9998
2 22825  98.9251 340.1139 0007424 258.3944 101.6404 14.30098952417535
ITAMSAT (IO-26)         
1 22826U 93061D   20332.89917119  .00000030  00000-0  29545-4 0  9996
2 22826  98.9193 339.4157 0008013 246.7831 113.2507 14.30435950417416
RADIO ROSTO (RS-15)     
1 23439U 94085A   20332.93297618 -.00000037  00000-0  15882-3 0  9990
2 23439  64.8193 341.8775 0153803  11.6028 348.8378 11.27569338 67613
JAS-2 (FO-29)           
1 24278U 96046B   20333.17450976 -.00000024  00000-0  14939-4 0  9995
2 24278  98.5888  61.6217 0349488 311.0763  46.0667 13.53100452199272
TECHSAT 1B (GO-32)      
1 25397U 98043D   20332.84556991 -.00000002  00000-0  18588-4 0  9994
2 25397  98.7466 273.2187 0000829   3.0124 357.1059 14.23695630162803
ISS (ZARYA)             
1 25544U 98067A   20333.57431713  .00004303  00000-0  85947-4 0  9999
2 25544  51.6467 255.0710 0002029  91.8835 262.3731 15.49092471257491
PCSAT (NO-44)           
1 26931U 01043C   20332.76383435 -.00000027  00000-0  21242-4 0  9993
2 26931  67.0520  80.9472 0007092 274.7399  85.2892 14.30596335   409
SAUDISAT 1C (SO-50)     
1 27607U 02058C   20333.43900735  .00000112  00000-0  36462-4 0  9998
2 27607  64.5555 232.9902 0030734 114.6057 245.8253 14.75683521965058
CUTE-1 (CO-55)          
1 27844U 03031E   20332.99745930  .00000101  00000-0  64937-4 0  9993
2 27844  98.6820 338.2669 0008994 305.8037  54.2304 14.22271136903383
CUBESAT XI-IV (CO-57)   
1 27848U 03031J   20333.49404909  .00000078  00000-0  55409-4 0  9998
2 27848  98.6882 339.3231 0009004 318.2056  41.8433 14.21853725903287
MOZHAYETS 4 (RS-22)     
1 27939U 03042A   20333.50556026  .00000289  00000-0  60377-4 0  9995
2 27939  98.1132 106.3812 0012737 189.5434 170.5538 14.66912481918066
CUBESAT XI-V            
1 28895U 05043F   20332.85399968  .00000287  00000-0  63778-4 0  9993
2 28895  98.0326 104.8649 0017900 123.7428 236.5483 14.63830724804740
CUTE-1.7+APD II (CO-65) 
1 32785U 08021C   20333.15349789  .00000569  00000-0  66719-4 0  9996
2 32785  97.5895 314.1163 0011931 315.7620  44.2642 14.88567462682298
DELFI-C3 (DO-64)        
1 32789U 08021G   20333.37282907  .00003309  00000-0  21756-3 0  9998
2 32789  97.4014  10.3190 0013618 111.4896 248.7786 15.08181893686612
SEEDS II (CO-66)        
1 32791U 08021J   20332.93698364  .00000827  00000-0  88606-4 0  9990
2 32791  97.5533 319.9845 0011760 279.1853  80.8035 14.91184709682829
YUBILEINY (RS-30)       
1 32953U 08025A   20333.58313979  .00000028  00000-0  12906-3 0  9994
2 32953  82.5024 175.8527 0019925  55.6022 304.6936 12.43098985568027
KKS-1 (KISEKI)          
1 33499U 09002H   20333.14802845  .00000236  00000-0  42504-4 0  9992
2 33499  98.2933 192.2813 0008464 330.6013  29.4718 14.75584870637150
SWISSCUBE               
1 35932U 09051B   20333.48220319  .00000253  00000-0  67965-4 0  9994
2 35932  98.6080 161.0711 0007413 352.4173   7.6911 14.56453962593749
BEESAT-1                
1 35933U 09051C   20333.04426965  .00000214  00000-0  59092-4 0  9991
2 35933  98.6060 162.4819 0005889   9.5060 350.6247 14.56521829593798
ITUPSAT1                
1 35935U 09051E   20333.47892375  .00000195  00000-0  55773-4 0  9992
2 35935  98.6165 163.1056 0008157   5.1893 354.9386 14.55661994593567
XIWANG-1 (HOPE-1)       
1 36122U 09072B   20333.19464977 -.00000028  00000-0  37047-4 0  9996
2 36122 100.1093 316.4279 0007308 201.3259 158.7552 13.16357652526412
JUGNU                   
1 37839U 11058B   20332.46023307  .00000334  00000-0  36197-4 0  9990
2 37839  19.9628  14.2142 0019078  25.9781 103.3785 14.12696227471973
SRMSAT                  
1 37841U 11058D   20332.70396591  .00000306  00000-0  23102-4 0  9999
2 37841  19.9723  80.4372 0011729 237.5013 264.1630 14.10678839471215
M-CUBED & EXP-1 PRIME   
1 37855U 11061F   20333.42107644  .00003367  00000-0  17068-3 0  9990
2 37855 101.7264 146.5526 0169431 308.1808  50.4245 15.06792623496361
STRAND-1                
1 39090U 13009E   20333.26905176  .00000078  00000-0  42174-4 0  9998
2 39090  98.4396 174.0318 0009604 151.1228 209.0491 14.35155785406206
SOMP                    
1 39134U 13015E   20333.52747998  .00004655  00000-0  21341-3 0  9996
2 39134  64.8637 105.4001 0018152 221.1890 138.7869 15.21590026421018
BEESAT-3                
1 39135U 13015F   20332.91847503  .00003767  00000-0  18971-3 0  9990
2 39135  64.8666 133.3581 0022592 214.3348 145.6320 15.18591493420427
BEESAT-2                
1 39136U 13015G   20332.83358819  .00003252  00000-0  16679-3 0  9991
2 39136  64.8758 139.2144 0033369 264.6906  95.0413 15.17991241420304
ZACUBE-1 (TSHEPISOSAT)  
1 39417U 13066B   20332.76640451  .00000516  00000-0  70359-4 0  9993
2 39417  97.5755 321.7968 0060217 102.0850 258.7120 14.81364373379219
GOMX-1                  
1 39430U 13066Q   20333.46005680  .00000547  00000-0  10720-3 0  9994
2 39430  97.8029 262.1675 0151689  28.3577 332.5773 14.59480200373722
CUBEBUG-2 (LO-74)       
1 39440U 13066AA  20333.47301079  .00000388  00000-0  60393-4 0  9992
2 39440  97.6506 307.0811 0080250 166.7330 193.6017 14.76100805377978
FUNCUBE-1 (AO-73)       
1 39444U 13066AE  20332.73683689  .00000630  00000-0  82837-4 0  9991
2 39444  97.5681 324.0776 0059353  93.7928 267.0075 14.82236783378148
UWE-3                   
1 39446U 13066AG  20333.45164971  .00000431  00000-0  63176-4 0  9995
2 39446  97.6147 314.1723 0070862 133.9695 226.7392 14.78633419377398
SPROUT                  
1 39770U 14029E   20333.30937482  .00001553  00000-0  17512-3 0  9992
2 39770  97.9058  79.0002 0009606 143.3801 216.8073 14.88006780353421
UNISAT-6                
1 40012U 14033C   20333.12396723  .00000399  00000-0  66257-4 0  9993
2 40012  97.6901 179.9210 0057875 190.0582 169.9474 14.74193593346534
DUCHIFAT-1              
1 40021U 14033M   20333.09879783  .00001163  00000-0  12311-3 0  9992
2 40021  97.9541 265.4194 0014122 105.7270 254.5507 14.91065319350271
QB50P1                  
1 40025U 14033R   20333.06740600  .00000690  00000-0  78787-4 0  9992
2 40025  97.9213 257.3844 0013603 117.6125 242.6474 14.89251356349956
NUDT-PHONESAT           
1 40900U 15049B   20333.29886962  .00005349  00000-0  21740-3 0  9991
2 40900  97.4281 342.8814 0013690 123.0530   0.3725 15.24895597288155
ZDPS 2A                 
1 40901U 15049C   20333.36368299  .00002789  00000-0  13738-3 0  9991
2 40901  97.4635 336.9614 0013701 155.5839 317.3609 15.18716114287449
ZDPS 2B                 
1 40902U 15049D   20333.41604059  .00002953  00000-0  14524-3 0  9992
2 40902  97.4646 334.2879 0013717 152.4583 343.6314 15.18723189287428
XW-2A                   
1 40903U 15049E   20333.41348258  .00004834  00000-0  10821-3 0  9995
2 40903  97.2678  22.3447 0013780  34.1245  92.7277 15.43850444291764
KAITUO 1A               
1 40904U 15049F   20333.44923682  .00000873  00000-0  49020-4 0  9992
2 40904  97.4823 332.0727 0014538 168.4271 349.8039 15.15879682287089
2015-049G               
1 40905U 15049G   20333.46019164  .00001201  00000-0  68241-4 0  9998
2 40905  97.4925 329.2200 0015882 166.8683 346.6646 15.14716032286906
XW-2C                   
1 40906U 15049H   20333.46048382  .00001613  00000-0  86486-4 0  9991
2 40906  97.4821 332.4602 0015146 158.9336 356.5391 15.16310436287104
XW-2D                   
1 40907U 15049J   20333.41866843  .00001725  00000-0  91619-4 0  9995
2 40907  97.4811 332.1558 0014514 155.3784 310.8346 15.16572868287121
LILACSAT-2              
1 40908U 15049K   20333.41484061  .00001068  00000-0  61969-4 0  9999
2 40908  97.4974 330.2803 0015859 168.8216 328.9977 15.14184883286804
XW-2F                   
1 40910U 15049M   20333.29732605  .00002450  00000-0  12241-3 0  9992
2 40910  97.4711 334.8499 0015305 144.9593 341.6349 15.18323428287198
XW-2B                   
1 40911U 15049N   20333.41602304  .00001871  00000-0  99292-4 0  9997
2 40911  97.4814 332.8505 0014410 156.6233 338.1296 15.16496528287019
KAITUO 1B               
1 40912U 15049P   20333.42356631  .00002879  00000-0  13346-3 0  9992
2 40912  97.4479 339.2627 0016005 121.6176 348.2925 15.20766806287636
TIANWANG 1C (TW-1C)     
1 40926U 15051B   20333.44248729  .00109521  00000-0  65668-3 0  9996
2 40926  97.0626  27.0545 0004130 169.5306 316.3648 15.77471769292754
TIANWANG 1A (TW-1A)     
1 40928U 15051D   20333.54522133  .00007473  00000-0  16715-3 0  9995
2 40928  97.0969 357.3552 0008729 317.1632 195.0097 15.43729069290675
LAPAN-A2                
1 40931U 15052B   20333.27268869  .00001754  00000-0  15464-3 0  9999
2 40931   5.9907 247.1117 0017610  66.9503 293.3040 14.76659697279511
E-ST@R-II               
1 41459U 16025D   20333.30346684  .00002229  00000-0  11370-3 0  9992
2 41459  98.1185  92.0291 0163833  20.7190 340.0580 15.07011958252111
AAUSAT 4                
1 41460U 16025E   20333.44404675  .00003672  00000-0  17843-3 0  9998
2 41460  98.1179  95.1273 0151576   7.0102 353.3177 15.09573666252370
NUSAT-1 (FRESCO)        
1 41557U 16033B   20333.53430222  .00003520  00000-0  12936-3 0  9991
2 41557  97.4005  62.7060 0012173 222.3857 147.7301 15.28510511250833
BEESAT-4                
1 41619U 16040W   20333.15513180  .00003926  00000-0  16223-3 0  9994
2 41619  97.3003  28.6703 0009926 330.0232  30.0436 15.24533643234337
